[{"OBJECT_NAME":"METEOSAT-11 (MSG-4)","OBJECT_ID":"2015-034A","EPOCH":"2026-03-05T19:10:34.378464","MEAN_MOTION":1.00266538,"ECCENTRICITY":0.0001806,"INCLINATION":2.9411,"RA_OF_ASC_NODE":71.6725,"ARG_OF_PERICENTER":270.94,"MEAN_ANOMALY":117.9257,"EPHEMERIS_TYPE":0,"CLASSIFICATION_TYPE":"U","NORAD_CAT_ID":40732,"ELEMENT_SET_NO":999,"REV_AT_EPOCH":618,"BSTAR":0,"MEAN_MOTION_DOT":5.6e-7,"MEAN_MOTION_DDOT":0},{"OBJECT_NAME":"ELEKTRO-L 2","OBJECT_ID":"2015-074A","EPOCH":"2026-03-05T20:46:24.034944","MEAN_MOTION":1.00270971,"ECCENTRICITY":0.0003373,"INCLINATION":6.4347,"RA_OF_ASC_NODE":71.7955,"ARG_OF_PERICENTER":240.2032,"MEAN_ANOMALY":148.6824,"EPHEMERIS_TYPE":0,"CLASSIFICATION_TYPE":"U","NORAD_CAT_ID":41105,"ELEMENT_SET_NO":999,"REV_AT_EPOCH":3747,"BSTAR":0,"MEAN_MOTION_DOT":-1.22e-6,"MEAN_MOTION_DDOT":0},{"OBJECT_NAME":"INSAT-3DR","OBJECT_ID":"2016-054A","EPOCH":"2026-03-05T17:46:19.954272","MEAN_MOTION":1.00272597,"ECCENTRICITY":0.0013135,"INCLINATION":0.0508,"RA_OF_ASC_NODE":95.7621,"ARG_OF_PERICENTER":186.2518,"MEAN_ANOMALY":222.0192,"EPHEMERIS_TYPE":0,"CLASSIFICATION_TYPE":"U","NORAD_CAT_ID":41752,"ELEMENT_SET_NO":999,"REV_AT_EPOCH":3478,"BSTAR":0,"MEAN_MOTION_DOT":-8.4e-7,"MEAN_MOTION_DDOT":0},{"OBJECT_NAME":"HIMAWARI-9","OBJECT_ID":"2016-064A","EPOCH":"2026-03-05T18:54:38.721024","MEAN_MOTION":1.0027197,"ECCENTRICITY":0.0001223,"INCLINATION":0.0139,"RA_OF_ASC_NODE":169.8519,"ARG_OF_PERICENTER":204.9104,"MEAN_ANOMALY":213.1917,"EPHEMERIS_TYPE":0,"CLASSIFICATION_TYPE":"U","NORAD_CAT_ID":41836,"ELEMENT_SET_NO":999,"REV_AT_EPOCH":3417,"BSTAR":0,"MEAN_MOTION_DOT":-2.81e-6,"MEAN_MOTION_DDOT":0},{"OBJECT_NAME":"GOES 16","OBJECT_ID":"2016-071A","EPOCH":"2026-03-05T15:12:42.187104","MEAN_MOTION":1.00271863,"ECCENTRICITY":0.0002454,"INCLINATION":0.141,"RA_OF_ASC_NODE":89.5903,"ARG_OF_PERICENTER":220.5452,"MEAN_ANOMALY":336.6996,"EPHEMERIS_TYPE":0,"CLASSIFICATION_TYPE":"U","NORAD_CAT_ID":41866,"ELEMENT_SET_NO":999,"REV_AT_EPOCH":3406,"BSTAR":0,"MEAN_MOTION_DOT":-9.8e-7,"MEAN_MOTION_DDOT":0},{"OBJECT_NAME":"FENGYUN 4A","OBJECT_ID":"2016-077A","EPOCH":"2026-03-05T19:43:11.410176","MEAN_MOTION":1.00278682,"ECCENTRICITY":0.0007356,"INCLINATION":2.0597,"RA_OF_ASC_NODE":81.3984,"ARG_OF_PERICENTER":135.5892,"MEAN_ANOMALY":5.9612,"EPHEMERIS_TYPE":0,"CLASSIFICATION_TYPE":"U","NORAD_CAT_ID":41882,"ELEMENT_SET_NO":999,"REV_AT_EPOCH":3389,"BSTAR":0,"MEAN_MOTION_DOT":-3.63e-6,"MEAN_MOTION_DDOT":0},{"OBJECT_NAME":"CYGFM05","OBJECT_ID":"2016-078A","EPOCH":"2026-03-05T18:38:31.897248","MEAN_MOTION":15.51946758,"ECCENTRICITY":0.0007073,"INCLINATION":34.957,"RA_OF_ASC_NODE":223.0158,"ARG_OF_PERICENTER":252.7529,"MEAN_ANOMALY":107.242,"EPHEMERIS_TYPE":0,"CLASSIFICATION_TYPE":"U","NORAD_CAT_ID":41884,"ELEMENT_SET_NO":999,"REV_AT_EPOCH":51265,"BSTAR":0.00045262,"MEAN_MOTION_DOT":0.0002813,"MEAN_MOTION_DDOT":0},{"OBJECT_NAME":"CYGFM04","OBJECT_ID":"2016-078B","EPOCH":"2026-03-05T16:56:56.074848","MEAN_MOTION":15.55346622,"ECCENTRICITY":0.0006088,"INCLINATION":34.9332,"RA_OF_ASC_NODE":195.6941,"ARG_OF_PERICENTER":285.4912,"MEAN_ANOMALY":74.5139,"EPHEMERIS_TYPE":0,"CLASSIFICATION_TYPE":"U","NORAD_CAT_ID":41885,"ELEMENT_SET_NO":999,"REV_AT_EPOCH":51284,"BSTAR":0.00047322,"MEAN_MOTION_DOT":0.00033317,"MEAN_MOTION_DDOT":0},{"OBJECT_NAME":"CYGFM02","OBJECT_ID":"2016-078C","EPOCH":"2026-03-05T16:15:17.479296","MEAN_MOTION":15.57617569,"ECCENTRICITY":0.0007152,"INCLINATION":34.9415,"RA_OF_ASC_NODE":192.8729,"ARG_OF_PERICENTER":287.2181,"MEAN_ANOMALY":72.776,"EPHEMERIS_TYPE":0,"CLASSIFICATION_TYPE":"U","NORAD_CAT_ID":41886,"ELEMENT_SET_NO":999,"REV_AT_EPOCH":51298,"BSTAR":0.00081994,"MEAN_MOTION_DOT":0.00063129,"MEAN_MOTION_DDOT":0},{"OBJECT_NAME":"CYGFM01","OBJECT_ID":"2016-078D","EPOCH":"2026-03-05T19:19:16.000320","MEAN_MOTION":15.5238738,"ECCENTRICITY":0.0006757,"INCLINATION":34.9402,"RA_OF_ASC_NODE":224.6369,"ARG_OF_PERICENTER":244.9311,"MEAN_ANOMALY":115.0711,"EPHEMERIS_TYPE":0,"CLASSIFICATION_TYPE":"U","NORAD_CAT_ID":41887,"ELEMENT_SET_NO":999,"REV_AT_EPOCH":51260,"BSTAR":0.00047044,"MEAN_MOTION_DOT":0.00029713,"MEAN_MOTION_DDOT":0},{"OBJECT_NAME":"CYGFM08","OBJECT_ID":"2016-078E","EPOCH":"2026-03-05T17:23:26.642688","MEAN_MOTION":15.53865999,"ECCENTRICITY":0.0008191,"INCLINATION":34.9431,"RA_OF_ASC_NODE":207.0767,"ARG_OF_PERICENTER":268.544,"MEAN_ANOMALY":91.4344,"EPHEMERIS_TYPE":0,"CLASSIFICATION_TYPE":"U","NORAD_CAT_ID":41888,"ELEMENT_SET_NO":999,"REV_AT_EPOCH":51283,"BSTAR":0.00047239,"MEAN_MOTION_DOT":0.00031508,"MEAN_MOTION_DDOT":0},{"OBJECT_NAME":"CYGFM07","OBJECT_ID":"2016-078G","EPOCH":"2026-03-05T18:10:19.138944","MEAN_MOTION":15.54561714,"ECCENTRICITY":0.0006681,"INCLINATION":34.9456,"RA_OF_ASC_NODE":195.3351,"ARG_OF_PERICENTER":288.6098,"MEAN_ANOMALY":71.39,"EPHEMERIS_TYPE":0,"CLASSIFICATION_TYPE":"U","NORAD_CAT_ID":41890,"ELEMENT_SET_NO":999,"REV_AT_EPOCH":51286,"BSTAR":0.00047436,"MEAN_MOTION_DOT":0.00032445,"MEAN_MOTION_DDOT":0},{"OBJECT_NAME":"CYGFM03","OBJECT_ID":"2016-078H","EPOCH":"2026-03-05T17:28:41.632896","MEAN_MOTION":15.54576853,"ECCENTRICITY":0.000593,"INCLINATION":34.9409,"RA_OF_ASC_NODE":197.503,"ARG_OF_PERICENTER":274.4225,"MEAN_ANOMALY":85.5821,"EPHEMERIS_TYPE":0,"CLASSIFICATION_TYPE":"U","NORAD_CAT_ID":41891,"ELEMENT_SET_NO":999,"REV_AT_EPOCH":51283,"BSTAR":0.00046978,"MEAN_MOTION_DOT":0.00032142,"MEAN_MOTION_DDOT":0},{"OBJECT_NAME":"FENGYUN 3D","OBJECT_ID":"2017-072A","EPOCH":"2026-03-05T21:37:19.703136","MEAN_MOTION":14.19714038,"ECCENTRICITY":0.0001734,"INCLINATION":99.0024,"RA_OF_ASC_NODE":37.5149,"ARG_OF_PERICENTER":20.255,"MEAN_ANOMALY":339.8694,"EPHEMERIS_TYPE":0,"CLASSIFICATION_TYPE":"U","NORAD_CAT_ID":43010,"ELEMENT_SET_NO":999,"REV_AT_EPOCH":43033,"BSTAR":0.00012305,"MEAN_MOTION_DOT":2.14e-6,"MEAN_MOTION_DDOT":0},{"OBJECT_NAME":"NOAA 20 (JPSS-1)","OBJECT_ID":"2017-073A","EPOCH":"2026-03-05T19:27:27.761472","MEAN_MOTION":14.19534961,"ECCENTRICITY":0.0001033,"INCLINATION":98.7689,"RA_OF_ASC_NODE":5.2366,"ARG_OF_PERICENTER":142.6447,"MEAN_ANOMALY":217.4801,"EPHEMERIS_TYPE":0,"CLASSIFICATION_TYPE":"U","NORAD_CAT_ID":43013,"ELEMENT_SET_NO":999,"REV_AT_EPOCH":42980,"BSTAR":8.3084e-5,"MEAN_MOTION_DOT":1.31e-6,"MEAN_MOTION_DDOT":0},{"OBJECT_NAME":"GOES 17","OBJECT_ID":"2018-022A","EPOCH":"2026-03-05T15:16:56.779392","MEAN_MOTION":1.00270245,"ECCENTRICITY":0.0002179,"INCLINATION":0.6713,"RA_OF_ASC_NODE":87.5289,"ARG_OF_PERICENTER":223.6197,"MEAN_ANOMALY":351.9387,"EPHEMERIS_TYPE":0,"CLASSIFICATION_TYPE":"U","NORAD_CAT_ID":43226,"ELEMENT_SET_NO":999,"REV_AT_EPOCH":2938,"BSTAR":0,"MEAN_MOTION_DOT":-1.89e-6,"MEAN_MOTION_DDOT":0},{"OBJECT_NAME":"FENGYUN 2H","OBJECT_ID":"2018-050A","EPOCH":"2026-03-05T17:47:49.812000","MEAN_MOTION":1.00272639,"ECCENTRICITY":0.0001803,"INCLINATION":2.7642,"RA_OF_ASC_NODE":80.3438,"ARG_OF_PERICENTER":175.6353,"MEAN_ANOMALY":253.5193,"EPHEMERIS_TYPE":0,"CLASSIFICATION_TYPE":"U","NORAD_CAT_ID":43491,"ELEMENT_SET_NO":999,"REV_AT_EPOCH":2840,"BSTAR":0,"MEAN_MOTION_DOT":-1.33e-6,"MEAN_MOTION_DDOT":0}]
