METEOSAT-11 (MSG-4)     
1 40732U 15034A   26064.79900901  .00000056  00000+0  00000+0 0  9991
2 40732   2.9411  71.6725 0001806 270.9400 117.9257  1.00266538  6188
ELEKTRO-L 2             
1 41105U 15074A   26064.86555596 -.00000122  00000+0  00000+0 0  9999
2 41105   6.4347  71.7955 0003373 240.2032 148.6824  1.00270971 37471
INSAT-3DR               
1 41752U 16054A   26064.74050873 -.00000084  00000+0  00000+0 0  9998
2 41752   0.0508  95.7621 0013135 186.2518 222.0192  1.00272597 34781
HIMAWARI-9              
1 41836U 16064A   26064.78794816 -.00000281  00000+0  00000+0 0  9997
2 41836   0.0139 169.8519 0001223 204.9104 213.1917  1.00271970 34170
GOES 16                 
1 41866U 16071A   26064.63382161 -.00000098  00000+0  00000+0 0  9994
2 41866   0.1410  89.5903 0002454 220.5452 336.6996  1.00271863 34065
FENGYUN 4A              
1 41882U 16077A   26064.82165984 -.00000363  00000+0  00000+0 0  9996
2 41882   2.0597  81.3984 0007356 135.5892   5.9612  1.00278682 33895
CYGFM05                 
1 41884U 16078A   26064.77675807  .00028130  00000+0  45262-3 0  9997
2 41884  34.9570 223.0158 0007073 252.7529 107.2420 15.51946758512651
CYGFM04                 
1 41885U 16078B   26064.70620457  .00033317  00000+0  47322-3 0  9994
2 41885  34.9332 195.6941 0006088 285.4912  74.5139 15.55346622512848
CYGFM02                 
1 41886U 16078C   26064.67728564  .00063129  00000+0  81994-3 0  9996
2 41886  34.9415 192.8729 0007152 287.2181  72.7760 15.57617569512983
CYGFM01                 
1 41887U 16078D   26064.80504630  .00029713  00000+0  47044-3 0  9997
2 41887  34.9402 224.6369 0006757 244.9311 115.0711 15.52387380512605
CYGFM08                 
1 41888U 16078E   26064.72461392  .00031508  00000+0  47239-3 0  9997
2 41888  34.9431 207.0767 0008191 268.5440  91.4344 15.53865999512836
CYGFM07                 
1 41890U 16078G   26064.75716596  .00032445  00000+0  47436-3 0  9992
2 41890  34.9456 195.3351 0006681 288.6098  71.3900 15.54561714512865
CYGFM03                 
1 41891U 16078H   26064.72825964  .00032142  00000+0  46978-3 0  9994
2 41891  34.9409 197.5030 0005930 274.4225  85.5821 15.54576853512839
FENGYUN 3D              
1 43010U 17072A   26064.90092249  .00000214  00000+0  12305-3 0  9998
2 43010  99.0024  37.5149 0001734  20.2550 339.8694 14.19714038430335
NOAA 20 (JPSS-1)        
1 43013U 17073A   26064.81073798  .00000131  00000+0  83084-4 0  9991
2 43013  98.7689   5.2366 0001033 142.6447 217.4801 14.19534961429806
GOES 17                 
1 43226U 18022A   26064.63676828 -.00000189  00000+0  00000+0 0  9991
2 43226   0.6713  87.5289 0002179 223.6197 351.9387  1.00270245 29383
FENGYUN 2H              
1 43491U 18050A   26064.74154875 -.00000133  00000+0  00000+0 0  9990
2 43491   2.7642  80.3438 0001803 175.6353 253.5193  1.00272639 28404
